DUBAISAT-1              
1 35682U 09041B   26168.36039689  .00000567  00000+0  91483-4 0  9991
2 35682  98.0052 301.6162 0011648  73.2818 286.9668 14.75122684905120
OCEANSAT-2              
1 35931U 09051A   26168.91440412 -.00000149  00000+0 -75927-4 0  9993
2 35931  98.2324 155.6933 0015261 233.7534 126.2223 13.99664293879436
WORLDVIEW-2 (WV-2)      
1 35946U 09055A   26168.85965883  .00000085  00000+0  42597-4 0  9994
2 35946  98.4737 242.2999 0003747 205.7289 154.3712 14.37899586875742
SMOS                    
1 36036U 09059A   26168.53700676  .00000178  00000+0  70793-4 0  9993
2 36036  98.4424 355.8667 0001322  88.3589 271.7751 14.39772733873509
YAOGAN-7                
1 36110U 09069A   26168.63038348  .00000380  00000+0  59691-4 0  9997
2 36110  98.0071  54.4947 0025545  40.3572 319.9528 14.78010206889699
TANDEM-X                
1 36605U 10030A   26168.58693709  .00000287  00000+0  16858-4 0  9992
2 36605  97.4451 176.2891 0001888  87.7615 272.3836 15.19150445886700
CARTOSAT-2B             
1 36795U 10035A   26168.88104666 -.00000209  00000+0 -21375-4 0  9995
2 36795  97.9950 219.4264 0011197 181.5236 178.5943 14.78660121859953
YAOGAN-10               
1 36834U 10038A   26168.90125324  .00001055  00000+0  12894-3 0  9992
2 36834  97.8968 192.2994 0001658  87.5647  33.2140 14.85349237857319
COSMO-SKYMED 4          
1 37216U 10060A   26168.84881916  .00000096  00000+0  18558-4 0  9999
2 37216  97.8880 352.4385 0001395  80.8693 279.2678 14.82152876844666
RESOURCESAT-2           
1 37387U 11015A   26168.79283479  .00000095  00000+0  63312-4 0  9990
2 37387  98.7644 236.2305 0010222 253.5789 106.4265 14.21606702786267
HAIYANG-2A              
1 37781U 11043A   26168.91197598 -.00000119  00000+0 -80394-4 0  9997
2 37781  99.3387 171.5719 0005842  90.7986 269.3832 13.74349820746759
RASAT                   
1 37791U 11044D   26168.87395236  .00000536  00000+0  10143-3 0  9998
2 37791  98.0581 260.2600 0020204 186.5765 313.9655 14.68167274793289
SRMSAT                  
1 37841U 11058D   26168.08915448  .00000356  00000+0  49079-4 0  9996
2 37841  19.9723  60.0600 0011790 202.5356 269.2197 14.11575544757809
PLEIADES 1A             
1 38012U 11076F   26168.87878177  .00000211  00000+0  55312-4 0  9998
2 38012  98.1978 243.9725 0001655  92.8629 321.1900 14.58571230772090
ZIYUAN 1-02C (ZY 1-02C) 
1 38038U 11079A   26168.85460890  .00000177  00000+0  72391-4 0  9993
2 38038  98.4073 236.1491 0005483 314.6173 178.4460 14.38214671759307
ARIRANG-3 (KOMPSAT-3)   
1 38338U 12025B   26168.85387753  .00000342  00000+0  77109-4 0  9990
2 38338  98.1171 126.3023 0006692 107.6712 252.5221 14.62206703751449
EXACTVIEW-1 (ADS-1B)    
1 38709U 12039C   26168.80253352  .00000088  00000+0  57233-4 0  9992
2 38709  98.9779 286.2066 0011204 164.6525 195.4995 14.24984725722790
SPOT 6                  
1 38755U 12047A   26168.81524036  .00000113  00000+0  34174-4 0  9991
2 38755  98.2120 236.1168 0001511  91.1422 268.9951 14.58562904733148
PLEIADES 1B             
1 39019U 12068A   26168.83415997  .00000197  00000+0  52157-4 0  9998
2 39019  98.1950 243.8767 0001666  89.9091 270.2299 14.58560712720940
GOKTURK 2               
1 39030U 12073A   26168.82673714  .00000217  00000+0  38796-4 0  9995
2 39030  97.6811   6.2260 0001584  55.2584 304.8775 14.75542847724602
LANDSAT 8               
1 39084U 13008A   26168.78010765  .00000268  00000+0  69642-4 0  9999
2 39084  98.2302 238.9083 0001358  93.5888 266.5466 14.57094945697983
SARAL                   
1 39086U 13009A   26168.80904988  .00000066  00000+0  40337-4 0  9990
2 39086  98.5556 355.3683 0000687 304.7351  55.3768 14.32856107695699
GAOFEN-1                
1 39150U 13018A   26168.87621369 -.00000073  00000+0 -32076-5 0  9990
2 39150  97.9097 240.9299 0015680 264.0846  95.8577 14.76535379708349
VNREDSAT 1              
1 39160U 13021B   26168.84039402  .00000256  00000+0  56494-4 0  9993
2 39160  97.9077 222.2317 0001724  87.9145 272.2256 14.64856641700386
ARIRANG-5 (KOMPSAT-5)   
1 39227U 13042A   26168.83119568  .00000894  00000+0  68204-4 0  9991
2 39227  97.6200 355.5227 0005403 118.3277 241.8494 15.04494428703956
SKYSAT-A                
1 39418U 13066C   26168.72028794  .00001981  00000+0  11543-3 0  9998
2 39418  97.3812 218.1006 0020061 315.5652  44.3969 15.12978299688562
DUBAISAT-2              
1 39419U 13066D   26168.79964662  .00002323  00000+0  14590-3 0  9995
2 39419  97.4559 158.9274 0012249  38.5076 321.7025 15.10182044686488
GPM-CORE                
1 39574U 14009C   26168.85690475  .00009793  00000+0  21417-3 0  9994
2 39574  64.9726 305.8835 0011820 251.7492 108.2362 15.44584340697910
SENTINEL-1A             
1 39634U 14016A   26168.84749510 -.00000056  00000+0 -20791-5 0  9994
2 39634  98.1773 176.3704 0001435  78.0431 282.0929 14.59198404650116
KAZEOSAT 1              
1 39731U 14024A   26168.85430944  .00000076  00000+0  36275-4 0  9993
2 39731  98.3207 241.2850 0001359  73.8838 286.2501 14.42080062638650
ALOS-2                  
1 39766U 14029A   26168.81550020  .00000799  00000+0  11384-3 0  9995
2 39766  97.9225 265.9697 0001625  89.7552 270.3846 14.79470141651674
