OBJECT_NAME,OBJECT_ID,EPOCH,MEAN_MOTION,ECCENTRICITY,INCLINATION,RA_OF_ASC_NODE,ARG_OF_PERICENTER,MEAN_ANOMALY,EPHEMERIS_TYPE,CLASSIFICATION_TYPE,NORAD_CAT_ID,ELEMENT_SET_NO,REV_AT_EPOCH,BSTAR,MEAN_MOTION_DOT,MEAN_MOTION_DDOT
DUBAISAT-1,2009-041B,2026-06-17T08:38:58.291296,14.75122684,.00116485,98.0052,301.6162,73.2818,286.9668,0,U,35682,999,90512,.91483366E-4,.567E-5,0
OCEANSAT-2,2009-051A,2026-06-17T21:56:44.515968,13.99664293,.0015261,98.2324,155.6933,233.7534,126.2223,0,U,35931,999,87943,-.75927E-4,-.149E-5,0
WORLDVIEW-2 (WV-2),2009-055A,2026-06-17T20:37:54.522912,14.37899586,.0003747,98.4737,242.2999,205.7289,154.3712,0,U,35946,999,87574,.42597E-4,.85E-6,0
SMOS,2009-059A,2026-06-17T12:53:17.384064,14.39772733,.0001322,98.4424,355.8667,88.3589,271.7751,0,U,36036,999,87350,.70793E-4,.178E-5,0
YAOGAN-7,2009-069A,2026-06-17T15:07:45.132672,14.78010206,.0025545,98.0071,54.4947,40.3572,319.9528,0,U,36110,999,88969,.59691E-4,.38E-5,0
TANDEM-X,2010-030A,2026-06-17T14:05:11.364576,15.19150445,.0001888,97.4451,176.2891,87.7615,272.3836,0,U,36605,999,88670,.16858E-4,.287E-5,0
CARTOSAT-2B,2010-035A,2026-06-17T21:08:42.431424,14.78660121,.0011197,97.9950,219.4264,181.5236,178.5943,0,U,36795,999,85995,-.21375E-4,-.209E-5,0
YAOGAN-10,2010-038A,2026-06-17T21:37:48.279936,14.85349237,.0001658,97.8968,192.2994,87.5647,33.2140,0,U,36834,999,85731,.12894E-3,.1055E-4,0
COSMO-SKYMED 4,2010-060A,2026-06-17T20:22:17.975424,14.82152876,.0001395,97.8880,352.4385,80.8693,279.2678,0,U,37216,999,84466,.18558E-4,.96E-6,0
RESOURCESAT-2,2011-015A,2026-06-17T19:01:40.925856,14.21606702,.0010222,98.7644,236.2305,253.5789,106.4265,0,U,37387,999,78626,.63312E-4,.95E-6,0
HAIYANG-2A,2011-043A,2026-06-17T21:53:14.724672,13.74349820,.0005842,99.3387,171.5719,90.7986,269.3832,0,U,37781,999,74675,-.80394E-4,-.119E-5,0
RASAT,2011-044D,2026-06-17T20:58:29.483904,14.68167274,.0020204,98.0581,260.2600,186.5765,313.9655,0,U,37791,999,79328,.10143E-3,.536E-5,0
SRMSAT,2011-058D,2026-06-17T02:08:22.947072,14.11575544,.00117909,19.9723,60.0600,202.5356,269.2197,0,U,37841,999,75780,.49079014E-4,.356E-5,0
PLEIADES 1A,2011-076F,2026-06-17T21:05:26.744928,14.58571230,.0001655,98.1978,243.9725,92.8629,321.1900,0,U,38012,999,77209,.55312E-4,.211E-5,0
ZIYUAN 1-02C (ZY 1-02C),2011-079A,2026-06-17T20:30:38.208960,14.38214671,.0005483,98.4073,236.1491,314.6173,178.4460,0,U,38038,999,75930,.72391E-4,.177E-5,0
ARIRANG-3 (KOMPSAT-3),2012-025B,2026-06-17T20:29:35.018592,14.62206703,.0006692,98.1171,126.3023,107.6712,252.5221,0,U,38338,999,75144,.77109E-4,.342E-5,0
EXACTVIEW-1 (ADS-1B),2012-039C,2026-06-17T19:15:38.896128,14.24984725,.0011204,98.9779,286.2066,164.6525,195.4995,0,U,38709,999,72279,.57233E-4,.88E-6,0
SPOT 6,2012-047A,2026-06-17T19:33:56.767104,14.58562904,.0001511,98.2120,236.1168,91.1422,268.9951,0,U,38755,999,73314,.34174E-4,.113E-5,0
PLEIADES 1B,2012-068A,2026-06-17T20:01:11.421408,14.58560712,.0001666,98.1950,243.8767,89.9091,270.2299,0,U,39019,999,72094,.52157E-4,.197E-5,0
GOKTURK 2,2012-073A,2026-06-17T19:50:30.088896,14.75542847,.0001584,97.6811,6.2260,55.2584,304.8775,0,U,39030,999,72460,.38796E-4,.217E-5,0
LANDSAT 8,2013-008A,2026-06-17T18:43:21.300960,14.57094945,.0001358,98.2302,238.9083,93.5888,266.5466,0,U,39084,999,69798,.69642E-4,.268E-5,0
SARAL,2013-009A,2026-06-17T19:25:01.909632,14.32856107,.0000687,98.5556,355.3683,304.7351,55.3768,0,U,39086,999,69569,.40337E-4,.66E-6,0
GAOFEN-1,2013-018A,2026-06-17T21:01:44.862816,14.76535379,.001568,97.9097,240.9299,264.0846,95.8577,0,U,39150,999,70834,-.32076E-5,-.73E-6,0
VNREDSAT 1,2013-021B,2026-06-17T20:10:10.043328,14.64856641,.0001724,97.9077,222.2317,87.9145,272.2256,0,U,39160,999,70038,.56494E-4,.256E-5,0
ARIRANG-5 (KOMPSAT-5),2013-042A,2026-06-17T19:56:55.306752,15.04494428,.0005403,97.6200,355.5227,118.3277,241.8494,0,U,39227,999,70395,.68204E-4,.894E-5,0
SKYSAT-A,2013-066C,2026-06-17T17:17:12.878016,15.12978299,.0020061,97.3812,218.1006,315.5652,44.3969,0,U,39418,999,68856,.11543E-3,.1981E-4,0
DUBAISAT-2,2013-066D,2026-06-17T19:11:29.467968,15.10182044,.0012249,97.4559,158.9274,38.5076,321.7025,0,U,39419,999,68648,.1459E-3,.2323E-4,0
GPM-CORE,2014-009C,2026-06-17T20:33:56.570400,15.44584340,.001182,64.9726,305.8835,251.7492,108.2362,0,U,39574,999,69791,.21417E-3,.9793E-4,0
SENTINEL-1A,2014-016A,2026-06-17T20:20:23.576640,14.59198404,.0001435,98.1773,176.3704,78.0431,282.0929,0,U,39634,999,65011,-.20791E-5,-.56E-6,0
KAZEOSAT 1,2014-024A,2026-06-17T20:30:12.335616,14.42080062,.0001359,98.3207,241.2850,73.8838,286.2501,0,U,39731,999,63865,.36275E-4,.76E-6,0
ALOS-2,2014-029A,2026-06-17T19:34:19.217280,14.79470141,.0001625,97.9225,265.9697,89.7552,270.3846,0,U,39766,999,65167,.11384E-3,.799E-5,0
